HULIANWANG DIGUI-01     
1 62323U 24240A   26065.85712528  .00000043  00000+0  67177-4 0  9993
2 62323  86.5033  17.7364 0001957  85.3463 274.7894 13.24420661 59095
HULIANWANG DIGUI-02     
1 62324U 24240B   26065.63794194  .00000060  00000+0  10512-3 0  9998
2 62324  86.5061  17.9407 0001884  89.2435 270.8915 13.24422226 59076
HULIANWANG DIGUI-03     
1 62325U 24240C   26065.84945198  .00000036  00000+0  48599-4 0  9994
2 62325  86.5015  17.6583 0002033  83.8443 276.2923 13.24422226 59095
HULIANWANG DIGUI-04     
1 62326U 24240D   26065.84193079  .00000039  00000+0  56111-4 0  9990
2 62326  86.5025  17.6927 0002071  84.5448 275.5922 13.24421927 59092
HULIANWANG DIGUI-05     
1 62327U 24240E   26065.83442543  .00000049  00000+0  79597-4 0  9997
2 62327  86.5077  17.9155 0002099  83.6069 276.5304 13.24421166 59095
HULIANWANG DIGUI-06     
1 62328U 24240F   26065.81921374  .00000068  00000+0  12458-3 0  9993
2 62328  86.5015  17.6384 0002057  87.9493 272.1876 13.24423039 59098
HULIANWANG DIGUI-07     
1 62329U 24240G   26065.81175801  .00000071  00000+0  13033-3 0  9994
2 62329  86.4985  17.5087 0002041  86.2977 273.8390 13.24421138 59092
HULIANWANG DIGUI-08     
1 62330U 24240H   26065.82688757  .00000055  00000+0  94334-4 0  9992
2 62330  86.5068  17.8752 0002145  84.6438 275.4941 13.24421043 59093
HULIANWANG DIGUI-09     
1 62331U 24240J   26065.87967785  .00000070  00000+0  12964-3 0  9994
2 62331  86.5034  17.7522 0002002  88.5479 271.5885 13.24422365 59093
HULIANWANG DIGUI-10     
1 62332U 24240K   26065.56997365  .00000065  00000+0  11787-3 0  9994
2 62332  86.5064  17.9794 0001989  90.4898 269.6464 13.24421736 59058
HULIANWANG DIGUI-11     
1 62971U 25030A   26065.84088844 -.00000082  00000+0  90861-4 0  9996
2 62971  49.9992 242.9153 0000775 173.4347 186.6536 13.29337991 52248
HULIANWANG DIGUI-12     
1 62972U 25030B   26065.84912686 -.00000087  00000+0  78946-4 0  9992
2 62972  50.0008 243.0049 0000884 166.4603 193.6293 13.29340033 52243
HULIANWANG DIGUI-13     
1 62973U 25030C   26065.83250316 -.00000095  00000+0  63404-4 0  9999
2 62973  50.0010 242.9302 0000730 159.6842 200.4059 13.29338038 52245
HULIANWANG DIGUI-14     
1 62974U 25030D   26065.80750238 -.00000092  00000+0  68027-4 0  9998
2 62974  50.0016 242.8182 0000797 157.8870 202.2036 13.29337820 52244
HULIANWANG DIGUI-15     
1 62975U 25030E   26065.82418498 -.00000092  00000+0  68551-4 0  9992
2 62975  50.0011 242.8895 0000725 167.4665 192.6225 13.29338072 52243
HULIANWANG DIGUI-16     
1 62976U 25030F   26065.79909791 -.00000088  00000+0  76772-4 0  9999
2 62976  50.0034 242.8274 0000821 157.3999 202.6910 13.29338557 52246
HULIANWANG DIGUI-17     
1 62977U 25030G   26065.79078097 -.00000094  00000+0  65498-4 0  9996
2 62977  50.0046 242.8234 0000758 162.6244 197.4655 13.29338260 52245
HULIANWANG DIGUI-18     
1 62978U 25030H   26065.78240777 -.00000091  00000+0  70307-4 0  9994
2 62978  50.0051 242.7900 0000786 163.7978 196.2920 13.29338332 52240
HULIANWANG DIGUI-19     
1 62979U 25030J   26065.81561475 -.00000093  00000+0  66643-4 0  9990
2 62979  50.0036 242.9185 0000818 158.2203 201.8704 13.29341531 52245
HULIANWANG DIGUI-20     
1 63687U 25086A   26065.80803097  .00000078  00000+0  14749-3 0  9997
2 63687  86.5125 347.6079 0001769  91.4807 268.6530 13.24420270 41322
HULIANWANG DIGUI-21     
1 63688U 25086B   26065.81552130  .00000074  00000+0  13748-3 0  9992
2 63688  86.5153 347.6351 0001664  94.5917 265.5407 13.24421886 41319
HULIANWANG DIGUI-22     
1 63689U 25086C   26065.82308558  .00000060  00000+0  10505-3 0  9990
2 63689  86.5118 347.5351 0001835  91.5942 268.5402 13.24421616 41314
HULIANWANG DIGUI-23     
1 63690U 25086D   26065.83814237  .00000051  00000+0  83618-4 0  9995
2 63690  86.5160 347.6672 0001760  87.8953 272.2383 13.24422430 41312
HULIANWANG DIGUI-24     
1 63691U 25086E   26065.84575678  .00000058  00000+0  10095-3 0  9995
2 63691  86.5167 347.6914 0001807  92.3115 267.8226 13.24420545 41313
HULIANWANG DIGUI-25     
1 63692U 25086F   26065.85328701  .00000058  00000+0  10029-3 0  9997
2 63692  86.5105 347.5098 0001702  91.3158 268.8171 13.24421935 41312
HULIANWANG DIGUI-26     
1 63693U 25086G   26065.83051564  .00000050  00000+0  81366-4 0  9991
2 63693  86.5154 347.6446 0001790  96.1756 263.9582 13.24421417 41316
HULIANWANG DIGUI-27     
1 63694U 25086H   26065.63427935  .00000074  00000+0  13741-3 0  9996
2 63694  86.5115 347.6181 0001808  91.1182 269.0159 13.24420266 41282
HULIANWANG DIGUI-28     
1 63695U 25086J   26065.80040572  .00000082  00000+0  15716-3 0  9997
2 63695  86.5079 347.4662 0001817  91.0859 269.0483 13.24421567 41302
HULIANWANG DIGUI-29     
1 63696U 25086K   26065.79293073  .00000075  00000+0  14024-3 0  9995
2 63696  86.5107 347.5492 0001702  91.8585 268.2744 13.24420419 41300
HULIANWANG DIGUI-30     
1 64283U 25121A   26065.87584384  .00000031  00000+0  39050-4 0  9994
2 64283  86.4951  48.0740 0001991  77.8480 282.2877 13.24423426 36618
HULIANWANG DIGUI-31     
1 64284U 25121B   26065.79296824  .00000027  00000+0  29697-4 0  9996
2 64284  86.4971  48.1529 0002010  78.2675 281.8685 13.24419643 36608
HULIANWANG DIGUI-32     
1 64285U 25121C   26065.78505106  .00000048  00000+0  76596-4 0  9995
2 64285  86.4913  47.9841 0002009  80.2808 279.8552 13.24425433 36602
HULIANWANG DIGUI-33     
1 64286U 25121D   26065.77747543  .00000021  00000+0  14454-4 0  9994
2 64286  86.4971  48.1427 0002077  77.0086 283.1280 13.24425483 36608
HULIANWANG DIGUI-34     
1 64287U 25121E   26065.76997309  .00000016  00000+0  41142-5 0  9990
2 64287  86.4948  48.0768 0002203  72.9643 287.1733 13.24424345 36607
HULIANWANG DIGUI-35     
1 64956U 25159A   26065.81199205  .00000072  00000+0  13252-3 0  9990
2 64956  86.4982 317.0371 0001267  73.6363 286.4910 13.24417351 29579
HULIANWANG DIGUI-36     
1 64957U 25159B   26065.80424185  .00000080  00000+0  15282-3 0  9992
2 64957  86.5001 317.0777 0001345  72.1879 287.9402 13.24419944 29578
HULIANWANG DIGUI-37     
1 64958U 25159C   26065.79670029  .00000083  00000+0  15965-3 0  9992
2 64958  86.4942 316.9414 0001431  69.3190 290.8097 13.24419517 29577
HULIANWANG DIGUI-38     
1 64959U 25159D   26065.78916499  .00000082  00000+0  15659-3 0  9995
2 64959  86.5001 317.0706 0001409  71.8721 288.2566 13.24419695 29573
HULIANWANG DIGUI-39     
1 64960U 25159E   26065.85714507  .00000079  00000+0  14925-3 0  9992
2 64960  86.4977 316.9871 0001416  73.2586 286.8703 13.24419882 29586
HULIANWANG DIGUI-40     
1 65043U 25162A   26065.77196337 -.00000085  00000+0  84666-4 0  9993
2 65043  49.9987 273.2939 0001036  78.7921 281.3068 13.29332364 29729
HULIANWANG DIGUI-41     
1 65044U 25162B   26065.76361063 -.00000087  00000+0  79897-4 0  9995
2 65044  49.9997 273.2679 0001069  78.7183 281.3810 13.29332767 29731
HULIANWANG DIGUI-42     
1 65045U 25162C   26065.83040867 -.00000078  00000+0  99714-4 0  9990
2 65045  49.9962 272.8923 0001013  81.4103 278.6884 13.29332241 29741
HULIANWANG DIGUI-43     
1 65046U 25162D   26065.82203330 -.00000088  00000+0  77529-4 0  9997
2 65046  49.9979 272.8809 0001003  79.9223 280.1763 13.29333200 29747
HULIANWANG DIGUI-44     
1 65047U 25162E   26065.81337980 -.00000090  00000+0  73737-4 0  9996
2 65047  50.0006 272.8841 0000753 358.6248   1.4622 13.29340745 29754
HULIANWANG DIGUI-45     
1 65048U 25162F   26065.80536152 -.00000084  00000+0  85719-4 0  9994
2 65048  50.0036 272.8964 0001056  80.1387 279.9604 13.29333042 29745
HULIANWANG DIGUI-46     
1 65049U 25162G   26065.79700629 -.00000085  00000+0  83336-4 0  9999
2 65049  50.0054 272.8858 0001057  82.3143 277.7850 13.29332929 29745
HULIANWANG DIGUI-47     
1 65050U 25162H   26065.78864981 -.00000081  00000+0  92812-4 0  9997
2 65050  50.0018 272.7799 0001052  82.5146 277.5846 13.29332811 29743
HULIANWANG DIGUI-48     
1 65051U 25162J   26065.78031891 -.00000078  00000+0  99462-4 0  9998
2 65051  50.0028 272.7538 0001034  80.0825 280.0163 13.29332323 29742
HULIANWANG DIGUI-49     
1 65106U 25168A   26065.84189668 -.00000043  00000+0  17360-3 0  9996
2 65106  50.0048 333.0387 0007424 156.9455 203.1751 13.29338970 29078
HULIANWANG DIGUI-50     
1 65107U 25168B   26065.83349355 -.00000048  00000+0  16424-3 0  9992
2 65107  50.0018 332.9377 0008402 142.9683 217.1770 13.29339603 29078
HULIANWANG DIGUI-51     
1 65108U 25168C   26065.82512799 -.00000045  00000+0  17139-3 0  9997
2 65108  50.0055 332.9642 0009760 142.9756 217.1791 13.29339882 29076
HULIANWANG DIGUI-52     
1 65109U 25168D   26065.81688981 -.00000042  00000+0  17576-3 0  9996
2 65109  50.0049 332.9037 0009617 155.8904 204.2420 13.29338488 29074
HULIANWANG DIGUI-53     
1 65110U 25168E   26065.80853501 -.00000038  00000+0  18615-3 0  9999
2 65110  50.0056 332.8821 0008435 145.5485 214.5936 13.29338402 29073
HULIANWANG DIGUI-54     
1 65111U 25168F   26065.63330250 -.00000030  00000+0  20236-3 0  9996
2 65111  50.0007 333.2008 0010000 150.4680 209.6758 13.29335648 29059
HULIANWANG DIGUI-55     
1 65112U 25168G   26065.80010579 -.00000034  00000+0  19473-3 0  9990
2 65112  50.0012 332.7551 0011310 146.7252 213.4333 13.29339135 29070
HULIANWANG DIGUI-56     
1 65113U 25168H   26065.79177199 -.00000033  00000+0  19714-3 0  9998
2 65113  50.0004 332.6962 0010997 168.6614 191.4508 13.29338532 29071
HULIANWANG DIGUI-57     
1 65114U 25168J   26065.85051043 -.00000035  00000+0  19267-3 0  9990
2 65114  50.0032 332.3964 0008753 159.2954 200.8274 13.29335513 29095
HULIANWANG DIGUI-58     
1 65164U 25174A   26065.82308678  .00000035  00000+0  46609-4 0  9998
2 65164  86.4924 286.6007 0001267  88.7920 271.3359 13.24421243 27247
HULIANWANG DIGUI-59     
1 65165U 25174B   26065.83063735  .00000039  00000+0  56370-4 0  9992
2 65165  86.4884 286.5271 0001252  87.9961 272.1317 13.24421419 27243
